STARLINK-2445
1 28109C 21027T   21325.13976798  .00004204  00000-0  28164-3 0  3254
2 28109  53.0558  17.5938 0001288  65.1918 196.9490 15.06401016    15
